NORAD_CAT_ID,OBJECT_NAME,OBJECT_TYPE,EPOCH,MEAN_MOTION,ECCENTRICITY,INCLINATION,RA_OF_ASC_NODE,ARG_OF_PERICENTER,MEAN_ANOMALY,BSTAR,MEAN_MOTION_DOT,MEAN_MOTION_DDOT,TLE_LINE0,TLE_LINE1,TLE_LINE2,SEMIMAJOR_AXIS,PERIOD,APOGEE,PERIGEE,DECAYED
55401.0,STARLINK-5076,PAYLOAD,2023-12-24 03:22:00,14.98325789,0.0002622,70.0007,297.9949,242.4471,117.6422,3.4104e-05,3.14e-06,0.0,0 STARLINK-5076,1 55401U 23014L   23358.14028135  .00000314  00000-0  34104-4 0  9994,2 55401  70.0007 297.9949 0002622 242.4471 117.6422 14.98325789 50303,6950.206,96.107,573.893,570.249,0.0
55401.0,STARLINK-5076,PAYLOAD,2023-12-24 06:34:16,14.98314349,0.0002694,70.0004,297.655,267.0959,92.9892,0.000277,3.212e-05,0.0,0 STARLINK-5076,1 55401U 23014L   23358.27380408  .00003212  00000-0  27700-3 0  9995,2 55401  70.0004 297.6550 0002694 267.0959  92.9892 14.98314349 50326,6950.241,96.108,573.979,570.234,0.0
55401.0,STARLINK-5076,PAYLOAD,2023-12-24 19:23:20,14.98334268,0.0002684,69.9997,296.308,262.0566,98.0289,1.0052e-05,2.7e-07,0.0,0 STARLINK-5076,1 55401U 23014L   23358.80787712  .00000027  00000-0  10052-4 0  9997,2 55401  69.9997 296.3080 0002684 262.0566  98.0289 14.98334268 50404,6950.18,96.107,573.91,570.179,0.0
55401.0,STARLINK-5076,PAYLOAD,2023-12-24 22:35:36,14.98334294,0.000269,69.9998,295.9717,259.1659,100.9197,1.1759e-05,4.7e-07,0.0,0 STARLINK-5076,1 55401U 23014L   23358.94139647  .00000047  00000-0  11759-4 0  9997,2 55401  69.9998 295.9717 0002690 259.1659 100.9197 14.98334294 51360,6950.18,96.107,573.914,570.175,0.0
55401.0,STARLINK-5076,PAYLOAD,2023-12-25 06:36:16,14.9833696,0.0002647,69.9997,295.1296,256.9623,103.1241,6.6062e-05,6.95e-06,0.0,0 STARLINK-5076,1 55401U 23014L   23359.27519216  .00000695  00000-0  66062-4 0  9994,2 55401  69.9997 295.1296 0002647 256.9623 103.1241 14.98336960 51414,6950.171,96.107,573.876,570.197,0.0
55401.0,STARLINK-5076,PAYLOAD,2023-12-25 22:37:38,14.98326077,0.0002391,70.0009,293.4484,235.58,124.5133,1.2231e-05,5.3e-07,0.0,0 STARLINK-5076,1 55401U 23014L   23359.94280134  .00000053  00000-0  12231-4 0  9999,2 55401  70.0009 293.4484 0002391 235.5800 124.5133 14.98326077 51513,6950.205,96.107,573.732,570.408,0.0
55401.0,STARLINK-5076,PAYLOAD,2023-12-26 03:26:02,14.98321618,0.0002426,70.0011,292.944,237.2375,122.855,-4.2281e-05,-5.97e-06,0.0,0 STARLINK-5076,1 55401U 23014L   23360.14308637 -.00000597  00000-0 -42281-4 0  9995,2 55401  70.0011 292.9440 0002426 237.2375 122.8550 14.98321618 50606,6950.219,96.108,573.77,570.398,0.0
55401.0,STARLINK-5076,PAYLOAD,2023-12-26 06:38:18,14.98321427,0.000242,70.0009,292.6072,240.9577,119.134,-4.9415e-05,-6.82e-06,0.0,0 STARLINK-5076,1 55401U 23014L   23360.27660728 -.00000682  00000-0 -49415-4 0  9992,2 55401  70.0009 292.6072 0002420 240.9577 119.1340 14.98321427 51560,6950.219,96.108,573.766,570.402,0.0
55401.0,STARLINK-5076,PAYLOAD,2023-12-26 22:39:38,14.98363841,0.0002637,70.0006,290.9245,251.3748,108.7125,-0.00060469,-7.307e-05,0.0,0 STARLINK-5076,1 55401U 23014L   23360.94419671 -.00007307  00000-0 -60469-3 0  9997,2 55401  70.0006 290.9245 0002637 251.3748 108.7125 14.98363841 51668,6950.088,96.105,573.786,570.121,0.0
55401.0,STARLINK-5076,PAYLOAD,2023-12-27 03:28:02,14.9835068,0.0002458,70.0005,290.4194,248.9408,111.1488,-0.00036444,-4.441e-05,0.0,0 STARLINK-5076,1 55401U 23014L   23361.14447575 -.00004441  00000-0 -36444-3 0  9996,2 55401  70.0005 290.4194 0002458 248.9408 111.1488 14.98350680 50757,6950.129,96.106,573.702,570.286,0.0
55401.0,STARLINK-5076,PAYLOAD,2023-12-27 05:04:11,14.98331975,0.0002585,69.9999,290.2492,257.4194,102.6676,1.1734e-05,4.7e-07,0.0,0 STARLINK-5076,1 55401U 23014L   23361.21123855  .00000047  00000-0  11734-4 0  9998,2 55401  69.9999 290.2492 0002585 257.4194 102.6676 14.98331975 50764,6950.187,96.107,573.848,570.255,0.0
55401.0,STARLINK-5076,PAYLOAD,2023-12-27 22:41:39,14.98327465,0.0002576,70.0001,288.3985,254.7244,105.3631,6.8635e-05,7.26e-06,0.0,0 STARLINK-5076,1 55401U 23014L   23361.94559964  .00000726  00000-0  68635-4 0  9998,2 55401  70.0001 288.3985 0002576 254.7244 105.3631 14.98327465 51819,6950.201,96.107,573.856,570.275,0.0
55401.0,STARLINK-5076,PAYLOAD,2023-12-28 05:06:12,14.98327052,0.0002603,69.9999,287.7247,258.0528,102.0339,5.778e-05,5.96e-06,0.0,0 STARLINK-5076,1 55401U 23014L   23362.21264077  .00000596  00000-0  57780-4 0  9991,2 55401  69.9999 287.7247 0002603 258.0528 102.0339 14.98327052 50910,6950.202,96.107,573.876,570.258,0.0
55401.0,STARLINK-5076,PAYLOAD,2023-12-28 22:43:40,14.98329726,0.0002701,69.9996,285.8734,260.0897,99.9957,-1.7244e-05,-2.99e-06,0.0,0 STARLINK-5076,1 55401U 23014L   23362.94700162 -.00000299  00000-0 -17244-4 0  9994,2 55401  69.9996 285.8734 0002701 260.0897  99.9957 14.98329726 51964,6950.194,96.107,573.936,570.181,0.0
55401.0,STARLINK-5076,PAYLOAD,2023-12-29 05:08:13,14.98329275,0.000272,69.9996,285.2002,261.0324,99.0527,-2.1663e-05,-3.51e-06,0.0,0 STARLINK-5076,1 55401U 23014L   23363.21404220 -.00000351  00000-0 -21663-4 0  9990,2 55401  69.9996 285.2002 0002720 261.0324  99.0527 14.98329275 51067,6950.195,96.107,573.951,570.17,0.0
55401.0,STARLINK-5076,PAYLOAD,2023-12-29 19:33:25,14.98336621,0.0002861,69.9992,283.6854,263.4674,96.616,3.7017e-05,3.49e-06,0.0,0 STARLINK-5076,1 55401U 23014L   23363.81487467  .00000349  00000-0  37017-4 0  9995,2 55401  69.9992 283.6854 0002861 263.4674  96.6160 14.98336621 51159,6950.172,96.107,574.026,570.049,0.0
55401.0,STARLINK-5076,PAYLOAD,2023-12-29 22:45:41,14.98338584,0.0002805,69.9995,283.3481,264.6639,95.42,6.8737e-05,7.27e-06,0.0,0 STARLINK-5076,1 55401U 23014L   23363.94839200  .00000727  00000-0  68737-4 0  9998,2 55401  69.9995 283.3481 0002805 264.6639  95.4200 14.98338584 52116,6950.166,96.106,573.981,570.082,0.0
55401.0,STARLINK-5076,PAYLOAD,2023-12-30 05:10:12,14.98359781,0.0002859,69.9994,282.6743,264.4035,95.6798,-0.00016063,-2.011e-05,0.0,0 STARLINK-5076,1 55401U 23014L   23364.21542170 -.00002011  00000-0 -16063-3 0  9990,2 55401  69.9994 282.6743 0002859 264.4035  95.6798 14.98359781 51211,6950.101,96.105,573.953,569.979,0.0
55401.0,STARLINK-5076,PAYLOAD,2023-12-30 19:35:26,14.98309983,0.0002415,70.0027,281.1578,256.688,103.4009,0.00031948,3.719e-05,0.0,0 STARLINK-5076,1 55401U 23014L   23364.81627710  .00003719  00000-0  31948-3 0  9993,2 55401  70.0027 281.1578 0002415 256.6880 103.4009 14.98309983 51302,6950.255,96.108,573.798,570.441,0.0
55401.0,STARLINK-5076,PAYLOAD,2023-12-30 22:47:42,14.98324896,0.0003099,69.9989,280.8209,274.9886,85.092,-2.005e-05,-3.32e-06,0.0,0 STARLINK-5076,1 55401U 23014L   23364.94979987 -.00000332  00000-0 -20050-4 0  9996,2 55401  69.9989 280.8209 0003099 274.9886  85.0920 14.98324896 52264,6950.209,96.107,574.228,569.92,0.0
55401.0,STARLINK-5076,PAYLOAD,2023-12-31 19:37:25,14.98346508,0.000281,69.9994,278.6334,270.3463,89.7374,5.5964e-05,5.75e-06,0.0,0 STARLINK-5076,1 55401U 23014L   23365.81766070  .00000575  00000-0  55964-4 0  9999,2 55401  69.9994 278.6334 0002810 270.3463  89.7374 14.98346508 51453,6950.142,96.106,573.96,570.054,0.0
55401.0,STARLINK-5076,PAYLOAD,2023-12-31 21:13:33,14.98347102,0.0002649,70.0002,278.4648,269.7382,90.3474,8.185e-05,8.84e-06,0.0,0 STARLINK-5076,1 55401U 23014L   23365.88441887  .00000884  00000-0  81850-4 0  9998,2 55401  70.0002 278.4648 0002649 269.7382  90.3474 14.98347102 52400,6950.14,96.106,573.846,570.164,0.0
55401.0,STARLINK-5076,PAYLOAD,2024-01-01 03:38:04,14.98365149,0.000269,69.9995,277.7925,261.6761,98.4093,0.00023933,2.766e-05,0.0,0 STARLINK-5076,1 55401U 23014L   24001.15143881  .00002766  00000-0  23933-3 0  9997,2 55401  69.9995 277.7925 0002690 261.6761  98.4093 14.98365149 51503,6950.084,96.105,573.819,570.08,0.0
55401.0,STARLINK-5076,PAYLOAD,2024-01-01 19:39:27,14.98324034,0.0003246,70.0001,276.1102,270.6314,89.4473,5.0062e-05,5.04e-06,0.0,0 STARLINK-5076,1 55401U 23014L   24001.81906373  .00000504  00000-0  50062-4 0  9995,2 55401  70.0001 276.1102 0003246 270.6314  89.4473 14.98324034 51607,6950.211,96.107,574.332,569.82,0.0
55401.0,STARLINK-5076,PAYLOAD,2024-01-01 22:51:43,14.9831841,0.0002948,69.9989,275.7714,263.9729,96.1095,-8.0222e-05,-1.05e-05,0.0,0 STARLINK-5076,1 55401U 23014L   24001.95259025 -.00001050  00000-0 -80222-4 0  9995,2 55401  69.9989 275.7714 0002948 263.9729  96.1095 14.98318410 52568,6950.229,96.108,574.143,570.045,0.0
55401.0,STARLINK-5076,PAYLOAD,2024-01-02 03:40:08,14.98318154,0.0002986,69.9989,275.2664,265.8659,94.2159,-8.3141e-05,-1.085e-05,0.0,0 STARLINK-5076,1 55401U 23014L   24002.15287174 -.00001085  00000-0 -83141-4 0  9995,2 55401  69.9989 275.2664 0002986 265.8659  94.2159 14.98318154 51656,6950.23,96.108,574.17,570.019,0.0
55401.0,STARLINK-5076,PAYLOAD,2024-01-02 21:17:37,14.98332681,0.0003174,69.9985,273.4155,268.8296,91.2499,-0.00040107,-4.876e-05,0.0,0 STARLINK-5076,1 55401U 23014L   24002.88723386 -.00004876  00000-0 -40107-3 0  9990,2 55401  69.9985 273.4155 0003174 268.8296  91.2499 14.98332681 52709,6950.185,96.107,574.256,569.844,0.0
55401.0,STARLINK-5076,PAYLOAD,2024-01-03 03:42:08,14.98336156,0.0003117,69.9985,272.7422,268.3294,91.7508,-0.00032647,-3.987e-05,0.0,0 STARLINK-5076,1 55401U 23014L   24003.15426894 -.00003987  00000-0 -32647-3 0  9997,2 55401  69.9985 272.7422 0003117 268.3294  91.7508 14.98336156 51805,6950.174,96.107,574.205,569.872,0.0
55401.0,STARLINK-5076,PAYLOAD,2024-01-03 19:43:29,14.98315905,0.0002978,69.9986,271.0586,264.6693,95.4126,9.219e-05,1.007e-05,0.0,0 STARLINK-5076,1 55401U 23014L   24003.82187181  .00001007  00000-0  92190-4 0  9993,2 55401  69.9986 271.0586 0002978 264.6693  95.4126 14.98315905 51902,6950.236,96.108,574.171,570.032,0.0
55401.0,STARLINK-5076,PAYLOAD,2024-01-03 22:55:45,14.9831644,0.0002969,69.9986,270.7218,264.5878,95.4942,9.6053e-05,1.053e-05,0.0,0 STARLINK-5076,1 55401U 23014L   24003.95539263  .00001053  00000-0  96053-4 0  9992,2 55401  69.9986 270.7218 0002969 264.5878  95.4942 14.98316440 52861,6950.235,96.108,574.163,570.036,0.0
